ONEWEB-0202             
1 48224U 21031Q   24048.58812219  .00000228  00000+0  57997-3 0  9992
2 48224  87.8927  99.0208 0001541  70.7583 289.3713 13.14505024136617
ONEWEB-0204             
1 48225U 21031R   24048.54609371 -.00000219  00000+0 -62522-3 0  9994
2 48225  87.8928  99.0413 0002126 110.3855 249.7503 13.14503326136508
ONEWEB-0205             
1 48226U 21031S   24048.59764129  .00000147  00000+0  36065-3 0  9994
2 48226  87.8928  99.0020 0001654 100.6830 259.4486 13.14502395136528
ONEWEB-0206             
1 48227U 21031T   24048.57067414  .00000085  00000+0  19544-3 0  9990
2 48227  87.8923  98.9996 0001704 104.2291 255.9028 13.14502659136471
ONEWEB-0182             
1 48228U 21031U   24048.56590936  .00000007  00000+0 -15903-4 0  9991
2 48228  87.8928  99.0223 0001967 103.5554 256.5795 13.14504472136683
ONEWEB-0186             
1 48229U 21031V   24048.57702284  .00000142  00000+0  34737-3 0  9998
2 48229  87.8928  98.9852 0001818  95.5412 264.5925 13.14503354136635
ONEWEB-0181             
1 48230U 21031W   24048.55480380 -.00000394  00000+0 -10985-2 0  9997
2 48230  87.8929  99.0584 0001809  93.3986 266.7350 13.14502189136488
ONEWEB-0188             
1 48231U 21031X   24048.59288188  .00000203  00000+0  51289-3 0  9994
2 48231  87.8928  99.0481 0001847  99.9457 260.1881 13.14502583136396
